{
  "type": "FeatureCollection",
  "features": [
    {
      "type": "Feature",
      "properties": {
        "norad_id": 36198,
        "name": "FENGYUN 1C DEB",
        "group": "fengyun-1c-debris",
        "lat": -74.34996304946613,
        "lon": 54.67666816444052,
        "alt_km": 943.6273297909938,
        "timestamp": "2025-12-18T19:29:52.831932+00:00",
        "meta_object_name": "FENGYUN 1C DEB",
        "meta_object_id": "1999-025DTX",
        "meta_epoch": "2025-12-17T13:10:00.796512",
        "meta_mean_motion": 14.07925497,
        "meta_eccentricity": 0.00967795,
        "meta_inclination": 98.6216,
        "meta_ra_of_asc_node": 20.6795,
        "meta_arg_of_pericenter": 101.8825,
        "meta_mean_anomaly": 259.3217,
        "meta_ephemeris_type": 0,
        "meta_classification_type": "U",
        "meta_norad_cat_id": 36198,
        "meta_element_set_no": 999,
        "meta_rev_at_epoch": 63655,
        "meta_bstar": 0.0010670002,
        "meta_mean_motion_dot": 1.851e-05,
        "meta_mean_motion_ddot": 0,
        "tle_line1": "1 36198U 99025DTX 25351.54862033  .00001851  00000+0  10670-2 0  9999",
        "tle_line2": "2 36198  98.6216  20.6795 0096779 101.8825 259.3217 14.07925497636555"
      },
      "geometry": {
        "type": "Point",
        "coordinates": [
          54.67666816444052,
          -74.34996304946613
        ]
      }
    },
    {
      "type": "Feature",
      "properties": {
        "norad_id": 36199,
        "name": "FENGYUN 1C DEB",
        "group": "fengyun-1c-debris",
        "lat": -66.54595736091899,
        "lon": 174.0254766992617,
        "alt_km": 863.2396454812815,
        "timestamp": "2025-12-18T19:29:52.831942+00:00",
        "meta_object_name": "FENGYUN 1C DEB",
        "meta_object_id": "1999-025DTY",
        "meta_epoch": "2025-12-14T18:36:07.375104",
        "meta_mean_motion": 14.2965262,
        "meta_eccentricity": 0.0092845,
        "meta_inclination": 98.2897,
        "meta_ra_of_asc_node": 9.8178,
        "meta_arg_of_pericenter": 61.5398,
        "meta_mean_anomaly": 299.51,
        "meta_ephemeris_type": 0,
        "meta_classification_type": "U",
        "meta_norad_cat_id": 36199,
        "meta_element_set_no": 999,
        "meta_rev_at_epoch": 65009,
        "meta_bstar": 0.00030192646,
        "meta_mean_motion_dot": 7.7e-06,
        "meta_mean_motion_ddot": 0,
        "tle_line1": "1 36199U 99025DTY 25348.77508536  .00000770  00000+0  30193-3 0  9998",
        "tle_line2": "2 36199  98.2897   9.8178 0092845  61.5398 299.5100 14.29652620650099"
      },
      "geometry": {
        "type": "Point",
        "coordinates": [
          174.0254766992617,
          -66.54595736091899
        ]
      }
    },
    {
      "type": "Feature",
      "properties": {
        "norad_id": 36200,
        "name": "FENGYUN 1C DEB",
        "group": "fengyun-1c-debris",
        "lat": -48.02314163203803,
        "lon": 78.14632487375859,
        "alt_km": 684.8260771639325,
        "timestamp": "2025-12-18T19:29:52.831952+00:00",
        "meta_object_name": "FENGYUN 1C DEB",
        "meta_object_id": "1999-025DTZ",
        "meta_epoch": "2025-12-15T11:03:42.742368",
        "meta_mean_motion": 14.58789977,
        "meta_eccentricity": 0.00334445,
        "meta_inclination": 99.3871,
        "meta_ra_of_asc_node": 63.7678,
        "meta_arg_of_pericenter": 358.7454,
        "meta_mean_anomaly": 1.3652,
        "meta_ephemeris_type": 0,
        "meta_classification_type": "U",
        "meta_norad_cat_id": 36200,
        "meta_element_set_no": 999,
        "meta_rev_at_epoch": 73400,
        "meta_bstar": 0.0024385699,
        "meta_mean_motion_dot": 0.00011445,
        "meta_mean_motion_ddot": 0,
        "tle_line1": "1 36200U 99025DTZ 25349.46091137  .00011445  00000+0  24386-2 0  9999",
        "tle_line2": "2 36200  99.3871  63.7678 0033444 358.7454   1.3652 14.58789977734007"
      },
      "geometry": {
        "type": "Point",
        "coordinates": [
          78.14632487375859,
          -48.02314163203803
        ]
      }
    },
    {
      "type": "Feature",
      "properties": {
        "norad_id": 36203,
        "name": "FENGYUN 1C DEB",
        "group": "fengyun-1c-debris",
        "lat": -9.104133758726583,
        "lon": -61.15847800260837,
        "alt_km": 681.9946917614625,
        "timestamp": "2025-12-18T19:29:52.831962+00:00",
        "meta_object_name": "FENGYUN 1C DEB",
        "meta_object_id": "1999-025DUC",
        "meta_epoch": "2025-12-16T02:34:12.047232",
        "meta_mean_motion": 14.78467362,
        "meta_eccentricity": 0.00836343,
        "meta_inclination": 99.0958,
        "meta_ra_of_asc_node": 294.3166,
        "meta_arg_of_pericenter": 138.0502,
        "meta_mean_anomaly": 222.7152,
        "meta_ephemeris_type": 0,
        "meta_classification_type": "U",
        "meta_norad_cat_id": 36203,
        "meta_element_set_no": 999,
        "meta_rev_at_epoch": 63479,
        "meta_bstar": 0.00071031238,
        "meta_mean_motion_dot": 5.428e-05,
        "meta_mean_motion_ddot": 0,
        "tle_line1": "1 36203U 99025DUC 25350.10708388  .00005428  00000+0  71031-3 0  9992",
        "tle_line2": "2 36203  99.0958 294.3166 0083634 138.0502 222.7152 14.78467362634798"
      },
      "geometry": {
        "type": "Point",
        "coordinates": [
          -61.15847800260837,
          -9.104133758726583
        ]
      }
    },
    {
      "type": "Feature",
      "properties": {
        "norad_id": 36204,
        "name": "FENGYUN 1C DEB",
        "group": "fengyun-1c-debris",
        "lat": -64.69181003846423,
        "lon": -109.90918321942505,
        "alt_km": 786.0496712136055,
        "timestamp": "2025-12-18T19:29:52.831972+00:00",
        "meta_object_name": "FENGYUN 1C DEB",
        "meta_object_id": "1999-025DUD",
        "meta_epoch": "2025-12-14T23:57:56.249280",
        "meta_mean_motion": 14.34595483,
        "meta_eccentricity": 0.0019975,
        "meta_inclination": 99.2907,
        "meta_ra_of_asc_node": 86.2463,
        "meta_arg_of_pericenter": 157.0269,
        "meta_mean_anomaly": 203.1811,
        "meta_ephemeris_type": 0,
        "meta_classification_type": "U",
        "meta_norad_cat_id": 36204,
        "meta_element_set_no": 999,
        "meta_rev_at_epoch": 94460,
        "meta_bstar": 0.00088642407,
        "meta_mean_motion_dot": 2.46e-05,
        "meta_mean_motion_ddot": 0,
        "tle_line1": "1 36204U 99025DUD 25348.99856770  .00002460  00000+0  88642-3 0  9995",
        "tle_line2": "2 36204  99.2907  86.2463 0019975 157.0269 203.1811 14.34595483944608"
      },
      "geometry": {
        "type": "Point",
        "coordinates": [
          -109.90918321942505,
          -64.69181003846423
        ]
      }
    },
    {
      "type": "Feature",
      "properties": {
        "norad_id": 36206,
        "name": "FENGYUN 1C DEB",
        "group": "fengyun-1c-debris",
        "lat": -22.93782749991166,
        "lon": 19.34665299025206,
        "alt_km": 805.5414987395288,
        "timestamp": "2025-12-18T19:29:52.831982+00:00",
        "meta_object_name": "FENGYUN 1C DEB",
        "meta_object_id": "1999-025DUF",
        "meta_epoch": "2025-12-16T08:29:03.735744",
        "meta_mean_motion": 14.21592437,
        "meta_eccentricity": 0.00302163,
        "meta_inclination": 98.4786,
        "meta_ra_of_asc_node": 13.3653,
        "meta_arg_of_pericenter": 8.6843,
        "meta_mean_anomaly": 351.4852,
        "meta_ephemeris_type": 0,
        "meta_classification_type": "U",
        "meta_norad_cat_id": 36206,
        "meta_element_set_no": 999,
        "meta_rev_at_epoch": 64472,
        "meta_bstar": 0.00060166506,
        "meta_mean_motion_dot": 1.283e-05,
        "meta_mean_motion_ddot": 0,
        "tle_line1": "1 36206U 99025DUF 25350.35351546  .00001283  00000+0  60167-3 0  9995",
        "tle_line2": "2 36206  98.4786  13.3653 0030216   8.6843 351.4852 14.21592437644722"
      },
      "geometry": {
        "type": "Point",
        "coordinates": [
          19.34665299025206,
          -22.93782749991166
        ]
      }
    },
    {
      "type": "Feature",
      "properties": {
        "norad_id": 36211,
        "name": "FENGYUN 1C DEB",
        "group": "fengyun-1c-debris",
        "lat": -33.024771497383576,
        "lon": 160.22582575882478,
        "alt_km": 619.7195167748605,
        "timestamp": "2025-12-18T19:29:52.831992+00:00",
        "meta_object_name": "FENGYUN 1C DEB",
        "meta_object_id": "1999-025DUL",
        "meta_epoch": "2025-12-17T17:14:00.063456",
        "meta_mean_motion": 14.26007929,
        "meta_eccentricity": 0.0266725,
        "meta_inclination": 98.5049,
        "meta_ra_of_asc_node": 344.7439,
        "meta_arg_of_pericenter": 214.2233,
        "meta_mean_anomaly": 144.1507,
        "meta_ephemeris_type": 0,
        "meta_classification_type": "U",
        "meta_norad_cat_id": 36211,
        "meta_element_set_no": 999,
        "meta_rev_at_epoch": 94440,
        "meta_bstar": 0.00033382673,
        "meta_mean_motion_dot": 1.107e-05,
        "meta_mean_motion_ddot": 0,
        "tle_line1": "1 36211U 99025DUL 25351.71805629  .00001107  00000+0  33383-3 0  9993",
        "tle_line2": "2 36211  98.5049 344.7439 0266725 214.2233 144.1507 14.26007929944402"
      },
      "geometry": {
        "type": "Point",
        "coordinates": [
          160.22582575882478,
          -33.024771497383576
        ]
      }
    }
  ]
}